NORAD_CAT_ID,OBJECT_NAME,OBJECT_TYPE,EPOCH,MEAN_MOTION,ECCENTRICITY,INCLINATION,RA_OF_ASC_NODE,ARG_OF_PERICENTER,MEAN_ANOMALY,BSTAR,MEAN_MOTION_DOT,MEAN_MOTION_DDOT,TLE_LINE0,TLE_LINE1,TLE_LINE2,SEMIMAJOR_AXIS,PERIOD,APOGEE,PERIGEE,DECAYED
53588.0,STARLINK-4691,PAYLOAD,2023-01-28 13:19:42,15.08838977,0.0001541,53.2167,304.6668,81.1436,278.9731,0.00010896,1.446e-05,0.0,0 STARLINK-4691,1 53588U 22104A   23028.55535387  .00001446  00000-0  10896-3 0  9996,2 53588  53.2167 304.6668 0001541  81.1436 278.9731 15.08838977 24573,6917.884,95.438,540.815,538.682,0.0
53588.0,STARLINK-4691,PAYLOAD,2023-01-28 19:41:14,15.0884486,0.0001393,53.2164,303.4774,81.4707,278.6443,0.00015106,2.117e-05,0.0,0 STARLINK-4691,1 53588U 22104A   23028.82031114  .00002117  00000-0  15106-3 0  9990,2 53588  53.2164 303.4774 0001393  81.4707 278.6443 15.08844860 24614,6917.866,95.437,540.694,538.767,0.0
53588.0,STARLINK-4691,PAYLOAD,2023-01-29 03:38:10,15.08855454,0.0001406,53.2162,301.9902,83.5898,276.5255,0.00055571,8.571e-05,0.0,0 STARLINK-4691,1 53588U 22104A   23029.15150883  .00008571  00000-0  55571-3 0  9992,2 53588  53.2162 301.9902 0001406  83.5898 276.5255 15.08855454 23491,6917.833,95.437,540.671,538.726,0.0
53588.0,STARLINK-4691,PAYLOAD,2023-01-29 17:56:39,15.0884337,0.0001391,53.2164,299.3133,81.4278,278.6872,0.0002418,3.563e-05,0.0,0 STARLINK-4691,1 53588U 22104A   23029.74767384  .00003563  00000-0  24180-3 0  9995,2 53588  53.2164 299.3133 0001391  81.4278 278.6872 15.08843370 23583,6917.87,95.437,540.697,538.773,0.0
53588.0,STARLINK-4691,PAYLOAD,2023-01-29 21:07:25,15.08842593,0.0001412,53.2168,298.7182,81.0491,279.0661,0.00021828,3.188e-05,0.0,0 STARLINK-4691,1 53588U 22104A   23029.88015419  .00003188  00000-0  21828-3 0  9994,2 53588  53.2168 298.7182 0001412  81.0491 279.0661 15.08842593 24770,6917.872,95.437,540.714,538.761,0.0
53588.0,STARLINK-4691,PAYLOAD,2023-01-30 03:28:57,15.08842634,0.0001524,53.2168,297.5292,74.2476,285.8684,0.00020992,3.055e-05,0.0,0 STARLINK-4691,1 53588U 22104A   23030.14511439  .00003055  00000-0  20992-3 0  9992,2 53588  53.2168 297.5292 0001524  74.2476 285.8684 15.08842634 24811,6917.872,95.437,540.792,538.683,0.0
53588.0,STARLINK-4691,PAYLOAD,2023-01-30 16:12:03,15.08840814,0.0001518,53.217,295.1505,76.7735,283.3426,0.00015824,2.231e-05,0.0,0 STARLINK-4691,1 53588U 22104A   23030.67503620  .00002231  00000-0  15824-3 0  9996,2 53588  53.2170 295.1505 0001518  76.7735 283.3426 15.08840814 23727,6917.878,95.438,540.793,538.693,0.0
53588.0,STARLINK-4691,PAYLOAD,2023-01-31 03:19:44,15.08850444,0.0001531,53.2172,293.0687,76.737,283.3793,0.00037169,5.634e-05,0.0,0 STARLINK-4691,1 53588U 22104A   23031.13871272  .00005634  00000-0  37169-3 0  9995,2 53588  53.2172 293.0687 0001531  76.7370 283.3793 15.08850444 24961,6917.848,95.437,540.773,538.654,0.0
53588.0,STARLINK-4691,PAYLOAD,2023-02-01 03:10:31,15.0885077,0.0001588,53.2173,288.6077,78.3557,281.7613,0.00028719,4.287e-05,0.0,0 STARLINK-4691,1 53588U 22104A   23032.13230884  .00004287  00000-0  28719-3 0  9998,2 53588  53.2173 288.6077 0001588  78.3557 281.7613 15.08850770 23944,6917.847,95.437,540.811,538.614,0.0
53588.0,STARLINK-4691,PAYLOAD,2023-02-02 03:01:18,15.08842105,0.0001425,53.2168,284.1482,83.963,276.1524,1.8733e-05,1e-07,0.0,0 STARLINK-4691,1 53588U 22104A   23033.12591028  .00000010  00000-0  18733-4 0  9994,2 53588  53.2168 284.1482 0001425  83.9630 276.1524 15.08842105 24092,6917.874,95.437,540.725,538.753,0.0
53588.0,STARLINK-4691,PAYLOAD,2023-02-03 01:16:42,15.08846634,0.0001333,53.2166,279.9853,88.0258,272.0887,0.00011165,1.49e-05,0.0,0 STARLINK-4691,1 53588U 22104A   23034.05326859  .00001490  00000-0  11165-3 0  9999,2 53588  53.2166 279.9853 0001333  88.0258 272.0887 15.08846634 25408,6917.86,95.437,540.647,538.803,0.0
53588.0,STARLINK-4691,PAYLOAD,2023-02-03 17:10:34,15.08839541,0.0001858,53.2165,277.0111,104.4813,255.6385,6.9421e-05,8.17e-06,0.0,0 STARLINK-4691,1 53588U 22104A   23034.71567359  .00000817  00000-0  69421-4 0  9995,2 53588  53.2165 277.0111 0001858 104.4813 255.6385 15.08839541 24335,6917.882,95.438,541.032,538.461,0.0
53588.0,STARLINK-4691,PAYLOAD,2023-02-04 21:47:30,15.08841963,0.0001943,53.2158,271.6592,99.1381,260.9831,0.00043528,6.647e-05,0.0,0 STARLINK-4691,1 53588U 22104A   23035.90799689  .00006647  00000-0  43528-3 0  9996,2 53588  53.2158 271.6592 0001943  99.1381 260.9831 15.08841963 24511,6917.874,95.437,541.084,538.395,0.0
53588.0,STARLINK-4691,PAYLOAD,2023-02-05 00:58:16,15.0885232,0.0001284,53.2159,271.0649,84.73,275.3839,0.000364,5.512e-05,0.0,0 STARLINK-4691,1 53588U 22104A   23036.04047140  .00005512  00000-0  36400-3 0  9991,2 53588  53.2159 271.0649 0001284  84.7300 275.3839 15.08852320 24537,6917.843,95.437,540.596,538.819,0.0
53588.0,STARLINK-4691,PAYLOAD,2023-02-05 20:02:54,15.08838959,9.65e-05,53.2169,267.4972,79.2358,280.8743,0.00010488,1.382e-05,0.0,0 STARLINK-4691,1 53588U 22104A   23036.83535810  .00001382  00000-0  10488-3 0  9993,2 53588  53.2169 267.4972 0000965  79.2358 280.8743 15.08838959 24653,6917.884,95.438,540.416,539.081,0.0
53588.0,STARLINK-4691,PAYLOAD,2023-02-05 21:38:18,15.08825892,0.0001114,53.2171,267.2003,79.9469,280.1649,-0.00019471,-3.384e-05,0.0,0 STARLINK-4691,1 53588U 22104A   23036.90160073 -.00003384  00000-0 -19471-3 0  9993,2 53588  53.2171 267.2003 0001114  79.9469 280.1649 15.08825892 25837,6917.924,95.438,540.559,539.018,0.0
53588.0,STARLINK-4691,PAYLOAD,2023-02-06 02:24:28,15.08823107,0.0001125,53.2157,266.3072,84.4015,275.7105,-0.00018528,-3.234e-05,0.0,0 STARLINK-4691,1 53588U 22104A   23037.10032541 -.00003234  00000-0 -18528-3 0  9990,2 53588  53.2157 266.3072 0001125  84.4015 275.7105 15.08823107 24694,6917.932,95.439,540.575,539.019,0.0
53588.0,STARLINK-4691,PAYLOAD,2023-02-06 21:29:06,15.08828308,0.000106,53.2158,262.7388,82.3975,277.7137,0.00019762,2.858e-05,0.0,0 STARLINK-4691,1 53588U 22104A   23037.89521361  .00002858  00000-0  19762-3 0  9999,2 53588  53.2158 262.7388 0001060  82.3975 277.7137 15.08828308 25983,6917.916,95.438,540.514,539.048,0.0
53588.0,STARLINK-4691,PAYLOAD,2023-02-07 02:15:16,15.0883699,0.000104,53.2155,261.8468,82.1558,277.9552,0.00088914,0.0001389,0.0,0 STARLINK-4691,1 53588U 22104A   23038.09393608  .00013890  00000-0  88914-3 0  9996,2 53588  53.2155 261.8468 0001040  82.1558 277.9552 15.08836990 24845,6917.89,95.438,540.474,539.035,0.0
53588.0,STARLINK-4691,PAYLOAD,2023-02-07 21:19:52,15.08875087,9.79e-05,53.2157,258.2783,78.1033,282.0069,0.0013401,0.00021125,0.0,0 STARLINK-4691,1 53588U 22104A   23038.88880668  .00021125  00000-0  13401-2 0  9998,2 53588  53.2157 258.2783 0000979  78.1033 282.0069 15.08875087 24963,6917.773,95.435,540.315,538.961,0.0
53588.0,STARLINK-4691,PAYLOAD,2023-02-08 13:13:43,15.08869186,0.000114,53.2165,255.305,103.9135,256.1984,0.00072556,0.00011287,0.0,0 STARLINK-4691,1 53588U 22104A   23039.55120003  .00011287  00000-0  72556-3 0  9998,2 53588  53.2165 255.3050 0001140 103.9135 256.1984 15.08869186 25061,6917.791,95.436,540.445,538.868,0.0
53588.0,STARLINK-4691,PAYLOAD,2023-02-08 19:35:16,15.08864055,7.49e-05,53.2159,254.1147,84.924,275.1837,0.00058107,8.978e-05,0.0,0 STARLINK-4691,1 53588U 22104A   23039.81615874  .00008978  00000-0  58107-3 0  9991,2 53588  53.2159 254.1147 0000749  84.9240 275.1837 15.08864055 25100,6917.807,95.436,540.19,539.154,0.0
53588.0,STARLINK-4691,PAYLOAD,2023-02-08 21:10:39,15.08861464,9.24e-05,53.2158,253.8173,87.4909,272.6189,0.0004786,7.342e-05,0.0,0 STARLINK-4691,1 53588U 22104A   23039.88239873  .00007342  00000-0  47860-3 0  9997,2 53588  53.2158 253.8173 0000924  87.4909 272.6189 15.08861464 26282,6917.815,95.436,540.319,539.041,0.0
53588.0,STARLINK-4691,PAYLOAD,2023-02-09 00:21:25,15.08863773,9.18e-05,53.2158,253.2224,88.6088,271.5009,0.00065162,0.00010105,0.0,0 STARLINK-4691,1 53588U 22104A   23040.01487728  .00010105  00000-0  65162-3 0  9994,2 53588  53.2158 253.2224 0000918  88.6088 271.5009 15.08863773 26304,6917.808,95.436,540.308,539.038,0.0
53588.0,STARLINK-4691,PAYLOAD,2023-02-09 17:50:40,15.08842842,0.0001838,53.2153,249.9503,135.2997,224.8143,0.00056038,8.642e-05,0.0,0 STARLINK-4691,1 53588U 22104A   23040.74351899  .00008642  00000-0  56038-3 0  9998,2 53588  53.2153 249.9503 0001838 135.2997 224.8143 15.08842842 25247,6917.872,95.437,541.008,538.465,0.0
53588.0,STARLINK-4691,PAYLOAD,2023-02-09 21:01:26,15.08846822,9.96e-05,53.2149,249.3545,83.2608,276.8497,0.00045897,7.026e-05,0.0,0 STARLINK-4691,1 53588U 22104A   23040.87600054  .00007026  00000-0  45897-3 0  9998,2 53588  53.2149 249.3545 0000996  83.2608 276.8497 15.08846822 26430,6917.86,95.437,540.414,539.036,0.0
53588.0,STARLINK-4691,PAYLOAD,2023-02-10 00:12:12,15.08847768,9.88e-05,53.2154,248.7611,86.89,273.2205,0.00052863,8.137e-05,0.0,0 STARLINK-4691,1 53588U 22104A   23041.00848065  .00008137  00000-0  52863-3 0  9995,2 53588  53.2154 248.7611 0000988  86.8900 273.2205 15.08847768 26458,6917.857,95.437,540.405,539.038,0.0
53588.0,STARLINK-4691,PAYLOAD,2023-02-10 16:06:04,15.08840031,0.0001123,53.2152,245.7872,86.7306,273.3815,0.00021074,3.068e-05,0.0,0 STARLINK-4691,1 53588U 22104A   23041.67088247  .00003068  00000-0  21074-3 0  9994,2 53588  53.2152 245.7872 0001123  86.7306 273.3815 15.08840031 25388,6917.88,95.438,540.522,538.968,0.0
53588.0,STARLINK-4691,PAYLOAD,2023-02-10 20:52:13,15.08847465,9.47e-05,53.2164,244.8943,88.9557,271.1544,0.00023701,3.487e-05,0.0,0 STARLINK-4691,1 53588U 22104A   23041.86959988  .00003487  00000-0  23701-3 0  9998,2 53588  53.2164 244.8943 0000947  88.9557 271.1544 15.08847465 26581,6917.858,95.437,540.378,539.067,0.0
53588.0,STARLINK-4691,PAYLOAD,2023-02-11 17:32:14,15.08840486,0.0001413,53.2164,241.0282,51.8798,308.2322,9.7224e-05,1.26e-05,0.0,0 STARLINK-4691,1 53588U 22104A   23042.73072504  .00001260  00000-0  97224-4 0  9994,2 53588  53.2164 241.0282 0001413  51.8798 308.2322 15.08840486 25548,6917.879,95.438,540.721,538.766,0.0
